TRANSIT 16 [?]          
1 02807U 67048A   17039.39616350  .00000051  00000-0  63879-4 0  9998
2 02807  89.6301 109.5646 0022501  91.9904 328.7241 13.50141379447443
TRANSIT 17 [?]          
1 02965U 67092A   17038.68981510  .00000040  00000-0  43357-4 0  9993
2 02965  89.2420 269.5976 0046142 250.2196 168.1698 13.52864617434198
TRANSIT 18 [?]          
1 03133U 68012A   17040.17810772  .00000059  00000-0  74863-4 0  9998
2 03133  89.9597 275.7178 0076179 158.7216 311.5192 13.50973068409722
NNSS 19 [?]             
1 04507U 70067A   17040.14667347  .00000047  00000-0  56051-4 0  9998
2 04507  89.8301 264.9000 0170545 281.3148  76.8883 13.50640319286735
NNSS O-20 [?]           
1 06909U 73081A   17039.82455058  .00000098  00000-0  90351-4 0  9999
2 06909  89.8337 314.9256 0158662  30.3256 330.6969 13.70427628361579
TRANSAT [?]             
1 10457U 77106A   17038.92500097  .00000035  00000-0  39195-4 0  9998
2 10457  89.7674 175.0224 0026605 141.2134 329.7037 13.48561468932108
NOVA I [?]              
1 12458U 81044A   17039.68696800  .00000014  00000-0  12778-4 0  9994
2 12458  89.9637 121.9691 0014123  14.4830 144.3523 13.22956878725157
NOVA 3 [?]              
1 15362U 84110A   17038.97177113  .00000029  00000-0  49916-4 0  9990
2 15362  90.0383  54.2992 0030424 228.4465 158.1059 13.22725747559993
OSCAR 30 [?]            
1 15935U 85066A   17040.08089170  .00000057  00000-0  87544-4 0  9997
2 15935  90.1243  48.6209 0168674 189.5632 205.9688 13.35610853533586
OSCAR 24 [?]            
1 15936U 85066B   17039.89167198  .00000054  00000-0  82888-4 0  9995
2 15936  90.1126  42.5666 0169248 194.3579 213.4555 13.35489670535657
POLAR BEAR [?]          
1 17070U 86088A   17040.21496836  .00000034  00000-0  23112-4 0  9996
2 17070  89.5444 333.2555 0040221 130.4890 346.3570 13.74721268516440
OSCAR 27 [?]            
1 18361U 87080A   17039.82400776  .00000038  00000-0  47509-4 0  9996
2 18361  90.3393 331.2454 0106465 107.4751 253.8067 13.44422144441927
OSCAR 29 [?]            
1 18362U 87080B   17040.40857028  .00000051  00000-0  69142-4 0  9991
2 18362  90.3399 331.4868 0107881 121.9271   1.1924 13.44013695441671
OSCAR 23 [?]            
1 19070U 88033A   17039.59328156  .00000036  00000-0  53430-4 0  9996
2 19070  90.3599 268.9412 0191052 157.4577 232.7654 13.27400330394378
OSCAR 32 [?]            
1 19071U 88033B   17039.78016243  .00000054  00000-0  90258-4 0  9998
2 19071  90.3598 269.0239 0189338 146.4658 260.2902 13.27584487394614
NOVA 11 [?]             
1 19223U 88052A   17040.20323209  .00000020  00000-0  28139-4 0  9992
2 19223  89.9617  87.4561 0028597 269.4380 157.3634 13.22643972382947
OSCAR 25 [?]            
1 19419U 88074A   17040.46793046  .00000044  00000-0  58174-4 0  9999
2 19419  89.9822  19.1577 0098439  92.2423  18.6572 13.42157238393593
OSCAR 31 [?]            
1 19420U 88074B   17040.42703598  .00000009  00000-0 -14358-5 0  9999
2 19420  89.9827  19.1678 0096540  86.6874  24.9194 13.42168315393699
